QIANFAN-33              
1 61566U 24185Q   25340.24096041  .00000655  00000+0  46438-3 0  9997
2 61566  88.9802  79.5314 0006392   4.3405 355.7826 13.96544063 68254
QIANFAN-34              
1 61567U 24185R   25340.23302376  .00000779  00000+0  49976-3 0  9995
2 61567  88.9780  79.1050 0005288   8.7873 351.3399 14.02298136 68446
QIANFAN-35              
1 61568U 24185S   25340.25055260  .00001700  00000+0  68057-3 0  9991
2 61568  88.9805  77.6404 0004781 320.2249  39.8595 14.27951163 69256
QIANFAN-36              
1 61569U 24185T   25340.24611299  .00000198  00000+0  26703-3 0  9993
2 61569  88.9786  81.7201 0007488  71.4001 288.7966 13.55584266 67042
QIANFAN-37              
1 62238U 24232B   25340.25262862  .00000188  00000+0  27226-3 0  9999
2 62238  89.0026  41.9840 0002665 108.0385 252.1057 13.50976453 98291
QIANFAN-38              
1 62239U 24232C   25340.27730790  .00000207  00000+0  30211-3 0  9992
2 62239  89.0033  41.8969 0014047 206.3732 153.6705 13.50979520 98356
QIANFAN-39              
1 62240U 24232D   25340.24590424  .00000880  00000+0  36644-3 0  9992
2 62240  89.0023  38.0520 0018486 100.1100 260.2180 14.25382949100463
QIANFAN-40              
1 62241U 24232E   25340.23615592  .00000201  00000+0  29275-3 0  9995
2 62241  89.0061  41.4837 0012815 214.2041 145.8286 13.50979155 98713
